{"type": "FeatureCollection", "features": [ {"type": "Feature", "properties": {"norad_id": 34736, "name": "COSMOS 2251 DEB", "group": "cosmos-2251-debris", "lat": -14.86907559676951, "lon": 38.49098011811514, "alt_km": 425.9057440530314, "timestamp": "2025-12-09T16:56:36.969310+00:00", "meta": {"OBJECT_NAME": "COSMOS 2251 DEB", "OBJECT_ID": "1993-036ZE", "EPOCH": "2025-12-09T06:07:35.163840", "MEAN_MOTION": 15.44075193, "ECCENTRICITY": 0.0017061, "INCLINATION": 74.002, "RA_OF_ASC_NODE": 43.8416, "ARG_OF_PERICENTER": 349.7587, "MEAN_ANOMALY": 10.3272, "EPHEMERIS_TYPE": 0, "CLASSIFICATION_TYPE": "U", "NORAD_CAT_ID": 34736, "ELEMENT_SET_NO": 999, "REV_AT_EPOCH": 88394, "BSTAR": 0.00865, "MEAN_MOTION_DOT": 0.00419278, "MEAN_MOTION_DDOT": 0}, "tle": {"line1": "1 34736U 93036ZE  25343.25526810  .00419278  00000+0  86500-2 0  9991", "line2": "2 34736  74.0020  43.8416 0017061 349.7587  10.3272 15.44075193883948"}}, "geometry": {"type": "Point", "coordinates": [38.49098011811514, -14.86907559676951]}}, {"type": "Feature", "properties": {"norad_id": 34738, "name": "COSMOS 2251 DEB", "group": "cosmos-2251-debris", "lat": -70.32189205882734, "lon": 22.21857074713237, "alt_km": 717.9045910166215, "timestamp": "2025-12-09T16:56:36.969320+00:00", "meta": {"OBJECT_NAME": "COSMOS 2251 DEB", "OBJECT_ID": "1993-036ZG", "EPOCH": "2025-12-09T12:41:33.003744", "MEAN_MOTION": 14.46291371, "ECCENTRICITY": 0.0047311, "INCLINATION": 74.0141, "RA_OF_ASC_NODE": 149.2671, "ARG_OF_PERICENTER": 296.1263, "MEAN_ANOMALY": 120.6858, "EPHEMERIS_TYPE": 0, "CLASSIFICATION_TYPE": "U", "NORAD_CAT_ID": 34738, "ELEMENT_SET_NO": 999, "REV_AT_EPOCH": 87812, "BSTAR": 0.00056225, "MEAN_MOTION_DOT": 2.015e-05, "MEAN_MOTION_DDOT": 0}, "tle": {"line1": "1 34738U 93036ZG  25343.52885421  .00002015  00000+0  56225-3 0  9998", "line2": "2 34738  74.0141 149.2671 0047311 296.1263 120.6858 14.46291371878123"}}, "geometry": {"type": "Point", "coordinates": [22.21857074713237, -70.32189205882734]}}, {"type": "Feature", "properties": {"norad_id": 34750, "name": "COSMOS 2251 DEB", "group": "cosmos-2251-debris", "lat": -67.08597346032191, "lon": 69.90146729949748, "alt_km": 696.5823079830852, "timestamp": "2025-12-09T16:56:36.969330+00:00", "meta": {"OBJECT_NAME": "COSMOS 2251 DEB", "OBJECT_ID": "1993-036ZU", "EPOCH": "2025-12-09T01:41:18.215808", "MEAN_MOTION": 14.61263935, "ECCENTRICITY": 0.00390336, "INCLINATION": 74.1081, "RA_OF_ASC_NODE": 208.7363, "ARG_OF_PERICENTER": 163.1386, "MEAN_ANOMALY": 347.2534, "EPHEMERIS_TYPE": 0, "CLASSIFICATION_TYPE": "U", "NORAD_CAT_ID": 34750, "ELEMENT_SET_NO": 999, "REV_AT_EPOCH": 88177, "BSTAR": 0.0011659854, "MEAN_MOTION_DOT": 5.79e-05, "MEAN_MOTION_DDOT": 0}, "tle": {"line1": "1 34750U 93036ZU  25343.07034972  .00005790  00000+0  11660-2 0  9995", "line2": "2 34750  74.1081 208.7363 0039033 163.1386 347.2534 14.61263935881776"}}, "geometry": {"type": "Point", "coordinates": [69.90146729949748, -67.08597346032191]}}, {"type": "Feature", "properties": {"norad_id": 34752, "name": "COSMOS 2251 DEB", "group": "cosmos-2251-debris", "lat": -26.30595445187648, "lon": -1.3691513865439333, "alt_km": 604.7455625749762, "timestamp": "2025-12-09T16:56:36.969341+00:00", "meta": {"OBJECT_NAME": "COSMOS 2251 DEB", "OBJECT_ID": "1993-036ZW", "EPOCH": "2025-12-09T12:15:50.660928", "MEAN_MOTION": 14.99811588, "ECCENTRICITY": 0.0047889, "INCLINATION": 74.0134, "RA_OF_ASC_NODE": 7.1752, "ARG_OF_PERICENTER": 136.7362, "MEAN_ANOMALY": 223.7602, "EPHEMERIS_TYPE": 0, "CLASSIFICATION_TYPE": "U", "NORAD_CAT_ID": 34752, "ELEMENT_SET_NO": 999, "REV_AT_EPOCH": 89801, "BSTAR": 0.0011762, "MEAN_MOTION_DOT": 0.00014905, "MEAN_MOTION_DDOT": 0}, "tle": {"line1": "1 34752U 93036ZW  25343.51100302  .00014905  00000+0  11762-2 0  9998", "line2": "2 34752  74.0134   7.1752 0047889 136.7362 223.7602 14.99811588898010"}}, "geometry": {"type": "Point", "coordinates": [-1.3691513865439333, -26.30595445187648]}}, {"type": "Feature", "properties": {"norad_id": 34754, "name": "COSMOS 2251 DEB", "group": "cosmos-2251-debris", "lat": -51.46236567165866, "lon": 74.28437044971004, "alt_km": 772.4984368124369, "timestamp": "2025-12-09T16:56:36.969351+00:00", "meta": {"OBJECT_NAME": "COSMOS 2251 DEB", "OBJECT_ID": "1993-036ZY", "EPOCH": "2025-12-09T03:13:09.560352", "MEAN_MOTION": 14.40473057, "ECCENTRICITY": 0.00294108, "INCLINATION": 74.0306, "RA_OF_ASC_NODE": 234.2716, "ARG_OF_PERICENTER": 351.0666, "MEAN_ANOMALY": 159.3955, "EPHEMERIS_TYPE": 0, "CLASSIFICATION_TYPE": "U", "NORAD_CAT_ID": 34754, "ELEMENT_SET_NO": 999, "REV_AT_EPOCH": 88081, "BSTAR": 0.00032636838, "MEAN_MOTION_DOT": 1.017e-05, "MEAN_MOTION_DDOT": 0}, "tle": {"line1": "1 34754U 93036ZY  25343.13413843  .00001017  00000+0  32637-3 0  9990", "line2": "2 34754  74.0306 234.2716 0029410 351.0666 159.3955 14.40473057880810"}}, "geometry": {"type": "Point", "coordinates": [74.28437044971004, -51.46236567165866]}}, {"type": "Feature", "properties": {"norad_id": 34755, "name": "COSMOS 2251 DEB", "group": "cosmos-2251-debris", "lat": -56.14192000050321, "lon": 140.35230330908135, "alt_km": 989.3371206781176, "timestamp": "2025-12-09T16:56:36.969361+00:00", "meta": {"OBJECT_NAME": "COSMOS 2251 DEB", "OBJECT_ID": "1993-036ZZ", "EPOCH": "2025-12-09T03:21:39.423168", "MEAN_MOTION": 13.5054172, "ECCENTRICITY": 0.04083395, "INCLINATION": 73.9261, "RA_OF_ASC_NODE": 295.8107, "ARG_OF_PERICENTER": 316.267, "MEAN_ANOMALY": 57.3845, "EPHEMERIS_TYPE": 0, "CLASSIFICATION_TYPE": "U", "NORAD_CAT_ID": 34755, "ELEMENT_SET_NO": 999, "REV_AT_EPOCH": 82475, "BSTAR": 0.0022689935, "MEAN_MOTION_DOT": 2.425e-05, "MEAN_MOTION_DDOT": 0}, "tle": {"line1": "1 34755U 93036ZZ  25343.14003962  .00002425  00000+0  22690-2 0  9990", "line2": "2 34755  73.9261 295.8107 0408339 316.2670  57.3845 13.50541720824754"}}, "geometry": {"type": "Point", "coordinates": [140.35230330908135, -56.14192000050321]}}, {"type": "Feature", "properties": {"norad_id": 34756, "name": "COSMOS 2251 DEB", "group": "cosmos-2251-debris", "lat": -31.689272063651508, "lon": 99.1575991172954, "alt_km": 773.1869638199414, "timestamp": "2025-12-09T16:56:36.969371+00:00", "meta": {"OBJECT_NAME": "COSMOS 2251 DEB", "OBJECT_ID": "1993-036AAA", "EPOCH": "2025-12-08T18:16:00.051744", "MEAN_MOTION": 13.67230677, "ECCENTRICITY": 0.03448148, "INCLINATION": 74.0023, "RA_OF_ASC_NODE": 110.912, "ARG_OF_PERICENTER": 347.5917, "MEAN_ANOMALY": 11.686, "EPHEMERIS_TYPE": 0, "CLASSIFICATION_TYPE": "U", "NORAD_CAT_ID": 34756, "ELEMENT_SET_NO": 999, "REV_AT_EPOCH": 83367, "BSTAR": 0.0014333065, "MEAN_MOTION_DOT": 1.792e-05, "MEAN_MOTION_DDOT": 0}, "tle": {"line1": "1 34756U 93036AAA 25342.76111171  .00001792  00000+0  14333-2 0  9991", "line2": "2 34756  74.0023 110.9120 0344814 347.5917  11.6860 13.67230677833678"}}, "geometry": {"type": "Point", "coordinates": [99.1575991172954, -31.689272063651508]}}, {"type": "Feature", "properties": {"norad_id": 34758, "name": "COSMOS 2251 DEB", "group": "cosmos-2251-debris", "lat": -4.8115636659740355, "lon": 125.75368894640005, "alt_km": 1161.2707366329741, "timestamp": "2025-12-09T16:56:36.969382+00:00", "meta": {"OBJECT_NAME": "COSMOS 2251 DEB", "OBJECT_ID": "1993-036AAC", "EPOCH": "2025-12-08T22:23:47.807808", "MEAN_MOTION": 13.58050372, "ECCENTRICITY": 0.03809641, "INCLINATION": 74.1074, "RA_OF_ASC_NODE": 305.6228, "ARG_OF_PERICENTER": 70.2569, "MEAN_ANOMALY": 293.9208, "EPHEMERIS_TYPE": 0, "CLASSIFICATION_TYPE": "U", "NORAD_CAT_ID": 34758, "ELEMENT_SET_NO": 999, "REV_AT_EPOCH": 82858, "BSTAR": 0.0015838819, "MEAN_MOTION_DOT": 1.821e-05, "MEAN_MOTION_DDOT": 0}, "tle": {"line1": "1 34758U 93036AAC 25342.93319222  .00001821  00000+0  15839-2 0  9994", "line2": "2 34758  74.1074 305.6228 0380964  70.2569 293.9208 13.58050372828585"}}, "geometry": {"type": "Point", "coordinates": [125.75368894640005, -4.8115636659740355]}}, {"type": "Feature", "properties": {"norad_id": 34760, "name": "COSMOS 2251 DEB", "group": "cosmos-2251-debris", "lat": 55.44014506172077, "lon": 103.26571859109318, "alt_km": 855.9802107126652, "timestamp": "2025-12-09T16:56:36.969392+00:00", "meta": {"OBJECT_NAME": "COSMOS 2251 DEB", "OBJECT_ID": "1993-036AAE", "EPOCH": "2025-12-08T15:50:44.018016", "MEAN_MOTION": 14.19553817, "ECCENTRICITY": 0.0096581, "INCLINATION": 74.0628, "RA_OF_ASC_NODE": 309.6396, "ARG_OF_PERICENTER": 2.6858, "MEAN_ANOMALY": 175.2854, "EPHEMERIS_TYPE": 0, "CLASSIFICATION_TYPE": "U", "NORAD_CAT_ID": 34760, "ELEMENT_SET_NO": 999, "REV_AT_EPOCH": 86630, "BSTAR": 0.0011287, "MEAN_MOTION_DOT": 2.469e-05, "MEAN_MOTION_DDOT": 0}, "tle": {"line1": "1 34760U 93036AAE 25342.66023169  .00002469  00000+0  11287-2 0  9991", "line2": "2 34760  74.0628 309.6396 0096581   2.6858 175.2854 14.19553817866302"}}, "geometry": {"type": "Point", "coordinates": [103.26571859109318, 55.44014506172077]}}, {"type": "Feature", "properties": {"norad_id": 34761, "name": "COSMOS 2251 DEB", "group": "cosmos-2251-debris", "lat": -17.93257662777971, "lon": -166.29964333765432, "alt_km": 793.1165925153364, "timestamp": "2025-12-09T16:56:36.969402+00:00", "meta": {"OBJECT_NAME": "COSMOS 2251 DEB", "OBJECT_ID": "1993-036AAF", "EPOCH": "2025-12-09T02:40:06.239712", "MEAN_MOTION": 14.38028513, "ECCENTRICITY": 0.00362578, "INCLINATION": 74.0294, "RA_OF_ASC_NODE": 9.4783, "ARG_OF_PERICENTER": 44.6958, "MEAN_ANOMALY": 315.7108, "EPHEMERIS_TYPE": 0, "CLASSIFICATION_TYPE": "U", "NORAD_CAT_ID": 34761, "ELEMENT_SET_NO": 999, "REV_AT_EPOCH": 87597, "BSTAR": 0.00071678339, "MEAN_MOTION_DOT": 2.16e-05, "MEAN_MOTION_DDOT": 0}, "tle": {"line1": "1 34761U 93036AAF 25343.11118333  .00002160  00000+0  71678-3 0  9990", "line2": "2 34761  74.0294   9.4783 0036257  44.6958 315.7108 14.38028513875975"}}, "geometry": {"type": "Point", "coordinates": [-166.29964333765432, -17.93257662777971]}}]}